[{"OBJECT_NAME":"CUPID","OBJECT_ID":"2021-088E","EPOCH":"2026-03-09T16:04:42.796128","MEAN_MOTION":15.24473777,"ECCENTRICITY":0.0013746,"INCLINATION":97.3985,"RA_OF_ASC_NODE":131.0756,"ARG_OF_PERICENTER":59.9938,"MEAN_ANOMALY":300.2662,"EPHEMERIS_TYPE":0,"CLASSIFICATION_TYPE":"U","NORAD_CAT_ID":49264,"ELEMENT_SET_NO":999,"REV_AT_EPOCH":24501,"BSTAR":0.00038662302,"MEAN_MOTION_DOT":9.454e-5,"MEAN_MOTION_DDOT":0},{"OBJECT_NAME":"STARLINK-30105","OBJECT_ID":"2023-105D","EPOCH":"2026-03-09T06:50:46.262688","MEAN_MOTION":15.275786,"ECCENTRICITY":0.00010775,"INCLINATION":43.0064,"RA_OF_ASC_NODE":33.1157,"ARG_OF_PERICENTER":264.562,"MEAN_ANOMALY":95.5109,"EPHEMERIS_TYPE":0,"CLASSIFICATION_TYPE":"U","NORAD_CAT_ID":57433,"ELEMENT_SET_NO":999,"REV_AT_EPOCH":14826,"BSTAR":1.7084428e-5,"MEAN_MOTION_DOT":2.08e-6,"MEAN_MOTION_DDOT":0}]
